{
    "links": {
        "self": "http://www.neowsapp.com/rest/v1/neo/3564248?api_key=iIulBulltgU6a56xZRHN4H3l9WmuAYTsLGpBGhQ2"
    },
    "id": "3564248",
    "neo_reference_id": "3564248",
    "name": "(2011 HO24)",
    "designation": "2011 HO24",
    "nasa_jpl_url": "http://ssd.jpl.nasa.gov/sbdb.cgi?sstr=3564248",
    "absolute_magnitude_h": 25.0,
    "estimated_diameter": {
        "kilometers": {
            "estimated_diameter_min": 0.02658,
            "estimated_diameter_max": 0.0594346868
        },
        "meters": {
            "estimated_diameter_min": 26.58,
            "estimated_diameter_max": 59.4346868419
        },
        "miles": {
            "estimated_diameter_min": 0.0165160412,
            "estimated_diameter_max": 0.0369309908
        },
        "feet": {
            "estimated_diameter_min": 87.2047272,
            "estimated_diameter_max": 194.9956979785
        }
    },
    "is_potentially_hazardous_asteroid": false,
    "close_approach_data": [
        {
            "close_approach_date": "2011-04-10",
            "close_approach_date_full": "2011-Apr-10 22:23",
            "epoch_date_close_approach": 1302474180000,
            "relative_velocity": {
                "kilometers_per_second": "1.870844884",
                "kilometers_per_hour": "6735.0415825241",
                "miles_per_hour": "4184.8929210967"
            },
            "miss_distance": {
                "astronomical": "0.0911470225",
                "lunar": "35.4561917525",
                "kilometers": "13635400.422842075",
                "miles": "8472644.940987635"
            },
            "orbiting_body": "Earth"
        }
    ],
    "orbital_data": {
        "orbit_id": "10",
        "orbit_determination_date": "2017-04-06 08:53:35",
        "first_observation_date": "2011-04-28",
        "last_observation_date": "2011-05-09",
        "data_arc_in_days": 11,
        "observations_used": 37,
        "orbit_uncertainty": "7",
        "minimum_orbit_intersection": ".090494",
        "jupiter_tisserand_invariant": "5.356",
        "epoch_osculation": "2459000.5",
        "eccentricity": ".08028901730721431",
        "semi_major_axis": "1.180421389387844",
        "inclination": "3.754859490626066",
        "ascending_node_longitude": "220.9081275616434",
        "orbital_period": "468.4400648491566",
        "perihelion_distance": "1.085646516025477",
        "perihelion_argument": "321.3028505017608",
        "aphelion_distance": "1.27519626275021",
        "perihelion_time": "2458923.813273743183",
        "mean_anomaly": "58.93437287723002",
        "mean_motion": ".7685081337266154",
        "equinox": "J2000",
        "orbit_class": {
            "orbit_class_type": "AMO",
            "orbit_class_description": "Near-Earth asteroid orbits similar to that of 1221 Amor",
            "orbit_class_range": "1.017 AU < q (perihelion) < 1.3 AU"
        }
    },
    "is_sentry_object": false
}